[{"OBJECT_NAME":"STARLINK-1434","OBJECT_ID":"2020-035BH","EPOCH":"2026-03-09T05:47:35.213856","MEAN_MOTION":15.26724568,"ECCENTRICITY":0.00053438,"INCLINATION":53.0547,"RA_OF_ASC_NODE":22.1128,"ARG_OF_PERICENTER":88.04,"MEAN_ANOMALY":272.121,"EPHEMERIS_TYPE":0,"CLASSIFICATION_TYPE":"U","NORAD_CAT_ID":45712,"ELEMENT_SET_NO":999,"REV_AT_EPOCH":31932,"BSTAR":0.0020295208,"MEAN_MOTION_DOT":0.00054112,"MEAN_MOTION_DDOT":0},{"OBJECT_NAME":"STARLINK-36374","OBJECT_ID":"2026-005P","EPOCH":"2026-03-09T11:34:48.874368","MEAN_MOTION":15.27580778,"ECCENTRICITY":6.689e-5,"INCLINATION":42.9945,"RA_OF_ASC_NODE":239.2498,"ARG_OF_PERICENTER":289.971,"MEAN_ANOMALY":70.1069,"EPHEMERIS_TYPE":0,"CLASSIFICATION_TYPE":"U","NORAD_CAT_ID":67417,"ELEMENT_SET_NO":999,"REV_AT_EPOCH":866,"BSTAR":0.0008636409,"MEAN_MOTION_DOT":0.0002358,"MEAN_MOTION_DDOT":0}]
